IRIDIUM 144             
1 43249U 18030A   25152.85263212  .00000003  00000+0 -60675-5 0  9990
2 43249  86.3957  89.4158 0002276  83.3141 276.8314 14.34217630375629
IRIDIUM 149             
1 43250U 18030B   25152.92874201  .00000230  00000+0  75083-4 0  9995
2 43250  86.3954  89.3552 0002409  83.1762 276.9708 14.34218028375653
IRIDIUM 157             
1 43251U 18030C   25152.87800096  .00000112  00000+0  32883-4 0  9991
2 43251  86.3956  89.4213 0002041  84.9314 275.2115 14.34217678375626
IRIDIUM 140             
1 43252U 18030D   25152.89703025  .00000309  00000+0  10336-3 0  9994
2 43252  86.3954  89.4270 0002506  84.8469 275.3013 14.34217202375681
IRIDIUM 145             
1 43253U 18030E   25153.86109977  .00000100  00000+0  28614-4 0  9997
2 43253  86.3956  88.9968 0002628  79.3837 280.7654 14.34213414375755
IRIDIUM 146             
1 43254U 18030F   25152.86531704  .00000357  00000+0  12025-3 0  9996
2 43254  86.3952  89.4264 0002695  81.0484 279.1017 14.34213660375623
IRIDIUM 148             
1 43255U 18030G   25153.18244685 -.00000054  00000+0 -26215-4 0  9995
2 43255  86.3958  89.3314 0002112  80.5304 279.6131 14.34217410375713
IRIDIUM 142             
1 43256U 18030H   25152.87166025  .00000090  00000+0  24995-4 0  9993
2 43256  86.3953  89.3639 0002628  75.0474 285.1012 14.34217355375626
